LAOSAT 1                
1 41034U 15067A   16018.56887917 -.00000355  00000-0  00000+0 0  9991
2 41034   0.0463 248.9678 0001874 314.2364 247.4993  1.00271750   735
TELSTAR 12V             
1 41036U 15068A   16019.13867346 -.00000132  00000-0  00000+0 0  9995
2 41036   0.0502 205.5808 0002115  62.8032 244.4884  1.00271718   608
CHINASAT 1C (ZX 1C)     
1 41103U 15073A   16019.10306877 -.00000162  00000-0  00000+0 0  9993
2 41103   0.0577 283.9912 0001552   3.2824 309.2318  1.00270819   549
ELEKTRO-L 2             
1 41105U 15074A   16016.05795236 -.00000131  00000-0  00000+0 0  9994
2 41105   0.4004 276.3261 0009427   7.8352 289.4269  1.00316471   367
COSMOS 2513             
1 41121U 15075A   16018.97410229 -.00000150  00000-0  00000+0 0  9993
2 41121   0.0208 272.4756 0002687 173.8402 102.3518  1.00270501   479
EXPRESS-AMU1            
1 41191U 15082A   16018.14722156 -.00000051  00000-0  00000+0 0  9992
2 41191   0.0613 272.0034 0000181 318.3374   9.8513  1.00270727   377
GAOFEN 4                
1 41194U 15083A   16018.39711878 -.00000346  00000-0  00000+0 0  9999
2 41194   0.5646 268.0986 0000422  33.9959  64.0342  1.00266988   365
